DIRECTV 11              
1 32729U 08013A   26115.83260583 -.00000139  00000+0  00000+0 0  9997
2 32729   0.0118 100.8021 0000305 260.6323  52.9543  1.00271505 45061
ICO G1                  
1 32763U 08016A   26115.83390583 -.00000183  00000+0  00000+0 0  9991
2 32763   5.5181  36.2394 0002446 345.8847  39.0799  1.00272738 66026
VINASAT-1               
1 32767U 08018A   26115.80712573 -.00000342  00000+0  00000+0 0  9998
2 32767   0.0095 291.9976 0002017 128.1942 216.1421  1.00271903 66069
STAR ONE C2             
1 32768U 08018B   26115.87336475 -.00000289  00000+0  00000+0 0  9999
2 32768   1.1091  82.8613 0002749 312.9148  67.5212  1.00273278 66137
AMOS-3                  
1 32794U 08022A   26115.85279925  .00000035  00000+0  00000+0 0  9995
2 32794   0.3216  86.6763 0000200 145.3005 291.5896  1.00453215 81814
GALAXY 18 (G-18)        
1 32951U 08024A   26115.68533316  .00000011  00000+0  00000+0 0  9994
2 32951   0.0197 262.5775 0003171 136.3024 298.5349  1.00271532 45329
ZHONGXING-9             
1 33051U 08028A   26114.80105619 -.00000262  00000+0  00000+0 0  9993
2 33051   0.6331  85.8918 0006453 281.9632 225.7200  1.00268950 65500
SKYNET 5C               
1 33055U 08030A   26115.84881257 -.00000150  00000+0  00000+0 0  9990
2 33055   3.6572  77.6375 0003736 317.5679 106.4370  1.00271568 65432
TURKSAT 3A              
1 33056U 08030B   26115.78935897  .00000132  00000+0  00000+0 0  9993
2 33056   0.0717  77.8393 0005035 317.5436 144.5675  1.00273852 51830
INTELSAT 25 (IS-25)     
1 33153U 08034A   26113.08239256 -.00000278  00000+0  00000+0 0  9994
2 33153   2.5670  80.9425 0002165 274.6153 207.9060  0.99965107 65143
ECHOSTAR 11             
1 33207U 08035A   26115.63100219 -.00000071  00000+0  00000+0 0  9995
2 33207   0.8706  84.6796 0002450 292.1033 314.2265  1.00270994 50683
SUPERBIRD-C2            
1 33274U 08038A   26115.80790573 -.00000318  00000+0  00000+0 0  9993
2 33274   2.2278  81.8806 0004377   1.9264 196.8727  1.00272699105200
INMARSAT 4-F3           
1 33278U 08039A   26115.83286583 -.00000152  00000+0  00000+0 0  9998
2 33278   4.2499  31.4151 0003079  12.8169  11.4454  1.00271221 46021
NIMIQ 4                 
1 33373U 08044A   26115.86780985 -.00000234  00000+0  00000+0 0  9999
2 33373   0.0073 279.9811 0002226 109.7942  54.5337  1.00271560 64450
GALAXY 19 (G-19)        
1 33376U 08045A   26115.83303918 -.00000153  00000+0  00000+0 0  9997
2 33376   0.0157 249.3206 0003257 160.4396   6.9681  1.00271954 64378
ASTRA 1M                
1 33436U 08057A   26115.78485228  .00000107  00000+0  00000+0 0  9994
2 33436   0.1624  79.3258 0003750   1.4170  74.9994  1.00273939 45214
EUTELSAT HOTBIRD 13C    
1 33459U 08065A   26115.84231255 -.00000294  00000+0  00000+0 0  9992
2 33459   2.8179  79.7801 0004168 319.6031  67.4224  1.00270284 46826
